[{"OBJECT_NAME":"STARLINK-3546","OBJECT_ID":"2022-016E","EPOCH":"2026-03-09T22:22:52.542048","MEAN_MOTION":15.15260371,"ECCENTRICITY":4.574e-5,"INCLINATION":53.2162,"RA_OF_ASC_NODE":325.333,"ARG_OF_PERICENTER":337.214,"MEAN_ANOMALY":22.8835,"EPHEMERIS_TYPE":0,"CLASSIFICATION_TYPE":"U","NORAD_CAT_ID":51718,"ELEMENT_SET_NO":999,"REV_AT_EPOCH":22462,"BSTAR":0.0017256751,"MEAN_MOTION_DOT":0.00032685,"MEAN_MOTION_DDOT":0},{"OBJECT_NAME":"OBJECT J","OBJECT_ID":"2023-091J","EPOCH":"2026-03-09T22:57:45.383328","MEAN_MOTION":15.13201377,"ECCENTRICITY":0.00147906,"INCLINATION":97.519,"RA_OF_ASC_NODE":123.4537,"ARG_OF_PERICENTER":127.2759,"MEAN_ANOMALY":232.9824,"EPHEMERIS_TYPE":0,"CLASSIFICATION_TYPE":"U","NORAD_CAT_ID":57174,"ELEMENT_SET_NO":999,"REV_AT_EPOCH":14862,"BSTAR":0.00032020689,"MEAN_MOTION_DOT":5.634e-5,"MEAN_MOTION_DDOT":0}]
